[{"OBJECT_NAME":"STARLINK-3547","OBJECT_ID":"2022-022AP","EPOCH":"2026-03-09T22:42:59.868864","MEAN_MOTION":15.08839838,"ECCENTRICITY":0.00013817,"INCLINATION":53.2184,"RA_OF_ASC_NODE":357.9683,"ARG_OF_PERICENTER":96.0513,"MEAN_ANOMALY":264.0637,"EPHEMERIS_TYPE":0,"CLASSIFICATION_TYPE":"U","NORAD_CAT_ID":51889,"ELEMENT_SET_NO":999,"REV_AT_EPOCH":22328,"BSTAR":-1.74758e-6,"MEAN_MOTION_DOT":-3.16e-6,"MEAN_MOTION_DDOT":0},{"OBJECT_NAME":"PEGASUS R\/B","OBJECT_ID":"2019-068B","EPOCH":"2026-03-09T22:22:48.049248","MEAN_MOTION":15.04682366,"ECCENTRICITY":0.00118062,"INCLINATION":26.9924,"RA_OF_ASC_NODE":328.8145,"ARG_OF_PERICENTER":174.3111,"MEAN_ANOMALY":185.7586,"EPHEMERIS_TYPE":0,"CLASSIFICATION_TYPE":"U","NORAD_CAT_ID":44629,"ELEMENT_SET_NO":999,"REV_AT_EPOCH":35103,"BSTAR":0.00027730034,"MEAN_MOTION_DOT":4.233e-5,"MEAN_MOTION_DDOT":0}]
